PERSEUS-M1              
1 40039U 14033AF  26140.60520355  .00001056  00000+0  10062-3 0  9999
2 40039  97.9635  84.2891 0012593  35.6412 324.5647 14.95529052646515
POLYITAN-1              
1 40042U 14033AJ  26140.56747087  .00012788  00000+0  41375-3 0  9996
2 40042  98.0961 164.2377 0005831 232.4800 127.5911 15.32199220649369
TIGRISAT                
1 40043U 14033AK  26140.35647585  .00001377  00000+0  16415-3 0  9995
2 40043  97.7801 291.0142 0049868 164.4218 195.8546 14.85027857641494
AEROCUBE 6A             
1 40045U 14033AM  26140.43522922  .00003302  00000+0  28186-3 0  9991
2 40045  97.7225 307.6906 0040034 107.7764 252.7833 14.97766990642461
AEROCUBE 6B             
1 40046U 14033AN  26140.19742525  .00004350  00000+0  35663-3 0  9990
2 40046  97.7181 307.1864 0038659 101.8070 258.7493 14.99188741642569
CANX-4                  
1 40055U 14034C   26140.45563964  .00000552  00000+0  78132-4 0  9997
2 40055  98.3156  14.7467 0014121  99.2570 261.0239 14.81206483640424
CANX-5                  
1 40056U 14034D   26140.38684056  .00000558  00000+0  78984-4 0  9997
2 40056  98.3159  14.7172 0014116  99.6483 260.6324 14.81223481631227
UKUBE-1                 
1 40074U 14037F   26140.46340042  .00005530  00000+0  31719-3 0  9992
2 40074  98.4245 140.8349 0000549 136.5898 223.5374 15.13051801644360
BRITE-PL2 (HEWELIUSZ)   
1 40119U 14049B   26140.25347367  .00001557  00000+0  14965-3 0  9998
2 40119  97.9068 252.0453 0013711 196.6097 163.4675 14.94474539637275
AEROCUBE 5C             
1 40965U 15058B   26140.54356565  .00001992  00000+0  18509-3 0  9991
2 40965  64.7680 348.5781 0129961  74.1449 287.3945 14.91280989361537
AEROCUBE 7              
1 40966U 15058C   26140.55147138  .00002894  00000+0  24003-3 0  9995
2 40966  64.7629 331.3624 0119731  72.7971 288.6208 14.95491659361825
FOX-1A (AO-85)          
1 40967U 15058D   26139.97838420  .00002104  00000+0  19745-3 0  9992
2 40967  64.7763   6.6371 0129254  67.6636 293.8116 14.90787539109363
SINOD-D 1               
1 40968U 15058E   26140.59958438  .00002883  00000+0  23905-3 0  9992
2 40968  64.7759 345.2919 0117782  64.1616 297.1590 14.95670429112532
SNAP-3 ALICE            
1 40970U 15058G   26140.55375561  .00056980  00000+0  84467-3 0  9998
2 40970  64.7513 198.9973 0033351  26.1120 334.1696 15.54251907112589
LMRST-SAT               
1 40971U 15058H   26140.59755927  .00002102  00000+0  19832-3 0  9992
2 40971  64.7768   0.9993 0131025  69.4420 292.0693 14.90416368109449
SNAP-3 EDDIE            
1 40972U 15058J   26140.50066544  .00056747  00000+0  80605-3 0  9994
2 40972  64.7431 190.1032 0033676  29.9318 330.3742 15.55397410114718
PROPCUBE 3              
1 40973U 15058K   26140.56671417  .00002468  00000+0  21315-3 0  9996
2 40973  64.7691 338.8200 0123137  70.9347 290.5055 14.94051580110677
BISONSAT                
1 40974U 15058L   26140.58877028  .00007577  00000+0  37746-3 0  9996
2 40974  64.7601 262.8261 0078505  58.9224 301.9574 15.15581765111435
SNAP-3 JIMI             
1 40975U 15058M   26140.42733750  .00004032  00000+0  28502-3 0  9996
2 40975  64.7654 307.5824 0105140  66.9045 294.3113 15.01990881110051
PROPCUBE 1 (FLORA)      
1 40976U 15058N   26140.39278681  .00001975  00000+0  19459-3 0  9994
2 40976  64.7759  21.3678 0129815  71.8017 289.7176 14.89046379112121
SINOD-D 3               
1 40977U 15058P   26140.59369736  .00002781  00000+0  24266-3 0  9997
2 40977  64.7734   1.9713 0118296  69.1724 292.2012 14.93783612110630
HORYU-4                 
1 41340U 16012D   26140.51525049  .00148657  00000+0  74679-3 0  9992
2 41340  30.9886 279.6091 0004177  88.1764 271.9372 15.80155358566419
RAVAN                   
1 41849U 16067B   26140.40646236  .00035621  00000+0  59387-3 0  9991
2 41849  97.9925  26.8286 0007154 100.3316 259.8742 15.51887222523381
CELTEE 1                
1 41850U 16067C   26140.15450490  .00003565  00000+0  17225-3 0  9997
2 41850  98.0704   4.8110 0001439  56.1866 303.9504 15.19373973521629
OPTICUBE 04             
1 41851U 16067D   26140.37232622  .00001244  00000+0  81897-4 0  9996
2 41851  98.0725 351.2035 0014944 207.3108 152.7335 15.09526913520974
AEROCUBE 8D             
1 41852U 16067E   26140.38549334  .00005297  00000+0  22231-3 0  9997
2 41852  98.0712   8.4460 0002441 207.2452 152.8655 15.23962793521832
AEROCUBE 8C             
1 41853U 16067F   26140.61187816  .00005104  00000+0  21271-3 0  9997
2 41853  98.0584   5.9531 0006150 143.5396 216.6259 15.24205260521863
CORVUS BC2              
1 42846U 17042X   26140.42527334  .00001479  00000+0  10511-3 0  9992
2 42846  97.4041 302.8632 0012557 200.2358 159.8374 15.06093182482887
CORVUS BC1              
1 42847U 17042Y   26140.42303939  .00001554  00000+0  10981-3 0  9991
2 42847  97.4071 303.6569 0012041 176.2355 183.8966 15.06263627482917
MAKERSAT 0              
1 43016U 17073D   26140.21583068  .00019291  00000+0  53752-3 0  9994
2 43016  97.4657  22.5369 0110314  13.6755 346.7432 15.30827686462184
