OBJECT_NAME,OBJECT_ID,EPOCH,MEAN_MOTION,ECCENTRICITY,INCLINATION,RA_OF_ASC_NODE,ARG_OF_PERICENTER,MEAN_ANOMALY,EPHEMERIS_TYPE,CLASSIFICATION_TYPE,NORAD_CAT_ID,ELEMENT_SET_NO,REV_AT_EPOCH,BSTAR,MEAN_MOTION_DOT,MEAN_MOTION_DDOT
PERSEUS-M1,2014-033AF,2026-05-20T14:31:29.586720,14.95529052,.00125938,97.9635,84.2891,35.6412,324.5647,0,U,40039,999,64651,.10062219E-3,.1056E-4,0
POLYITAN-1,2014-033AJ,2026-05-20T13:37:09.483168,15.32199220,.00058311,98.0961,164.2377,232.4800,127.5911,0,U,40042,999,64936,.41374705E-3,.12788E-3,0
TIGRISAT,2014-033AK,2026-05-20T08:33:19.513440,14.85027857,.00498687,97.7801,291.0142,164.4218,195.8546,0,U,40043,999,64149,.16414665E-3,.1377E-4,0
AEROCUBE 6A,2014-033AM,2026-05-20T10:26:43.804608,14.97766990,.00400344,97.7225,307.6906,107.7764,252.7833,0,U,40045,999,64246,.28186399E-3,.3302E-4,0
AEROCUBE 6B,2014-033AN,2026-05-20T04:44:17.541600,14.99188741,.00386597,97.7181,307.1864,101.8070,258.7493,0,U,40046,999,64256,.35662583E-3,.435E-4,0
CANX-4,2014-034C,2026-05-20T10:56:07.264896,14.81206483,.00141219,98.3156,14.7467,99.2570,261.0239,0,U,40055,999,64042,.78131774E-4,.552E-5,0
CANX-5,2014-034D,2026-05-20T09:17:03.024384,14.81223481,.00141161,98.3159,14.7172,99.6483,260.6324,0,U,40056,999,63122,.7898358E-4,.558E-5,0
UKUBE-1,2014-037F,2026-05-20T11:07:17.796288,15.13051801,.0000549,98.4245,140.8349,136.5898,223.5374,0,U,40074,999,64436,.31719405E-3,.553E-4,0
BRITE-PL2 (HEWELIUSZ),2014-049B,2026-05-20T06:05:00.125088,14.94474539,.0013711,97.9068,252.0453,196.6097,163.4675,0,U,40119,999,63727,.14965E-3,.1557E-4,0
AEROCUBE 5C,2015-058B,2026-05-20T13:02:44.072160,14.91280989,.01299619,64.7680,348.5781,74.1449,287.3945,0,U,40965,999,36153,.18509134E-3,.1992E-4,0
AEROCUBE 7,2015-058C,2026-05-20T13:14:07.127232,14.95491659,.01197314,64.7629,331.3624,72.7971,288.6208,0,U,40966,999,36182,.24003443E-3,.2894E-4,0
FOX-1A (AO-85),2015-058D,2026-05-19T23:28:52.394880,14.90787539,.01292541,64.7763,6.6371,67.6636,293.8116,0,U,40967,999,10936,.197453E-3,.2104E-4,0
SINOD-D 1,2015-058E,2026-05-20T14:23:24.090432,14.95670429,.01177822,64.7759,345.2919,64.1616,297.1590,0,U,40968,999,11253,.23905025E-3,.2883E-4,0
SNAP-3 ALICE,2015-058G,2026-05-20T13:17:24.484704,15.54251907,.00333515,64.7513,198.9973,26.1120,334.1696,0,U,40970,999,11258,.84467141E-3,.5698E-3,0
LMRST-SAT,2015-058H,2026-05-20T14:20:29.120928,14.90416368,.0131025,64.7768,0.9993,69.4420,292.0693,0,U,40971,999,10944,.19831678E-3,.2102E-4,0
SNAP-3 EDDIE,2015-058J,2026-05-20T12:00:57.494016,15.55397410,.00336765,64.7431,190.1032,29.9318,330.3742,0,U,40972,999,11471,.80605176E-3,.56747E-3,0
PROPCUBE 3,2015-058K,2026-05-20T13:36:04.104288,14.94051580,.01231375,64.7691,338.8200,70.9347,290.5055,0,U,40973,999,11067,.21314774E-3,.2468E-4,0
BISONSAT,2015-058L,2026-05-20T14:07:49.752192,15.15581765,.00785054,64.7601,262.8261,58.9224,301.9574,0,U,40974,999,11143,.3774577E-3,.7577E-4,0
SNAP-3 JIMI,2015-058M,2026-05-20T10:15:21.960000,15.01990881,.010514,64.7654,307.5824,66.9045,294.3113,0,U,40975,999,11005,.28501886E-3,.4032E-4,0
PROPCUBE 1 (FLORA),2015-058N,2026-05-20T09:25:36.780384,14.89046379,.01298153,64.7759,21.3678,71.8017,289.7176,0,U,40976,999,11212,.19458828E-3,.1975E-4,0
SINOD-D 3,2015-058P,2026-05-20T14:14:55.451904,14.93783612,.0118296,64.7734,1.9713,69.1724,292.2012,0,U,40977,999,11063,.24265715E-3,.2781E-4,0
HORYU-4,2016-012D,2026-05-20T12:21:57.642336,15.80155358,.00041775,30.9886,279.6091,88.1764,271.9372,0,U,41340,999,56641,.74679248E-3,.148657E-2,0
RAVAN,2016-067B,2026-05-20T09:45:18.347904,15.51887222,.00071546,97.9925,26.8286,100.3316,259.8742,0,U,41849,999,52338,.59387019E-3,.35621E-3,0
CELTEE 1,2016-067C,2026-05-20T03:42:29.223360,15.19373973,.00014392,98.0704,4.8110,56.1866,303.9504,0,U,41850,999,52162,.17225425E-3,.3565E-4,0
OPTICUBE 04,2016-067D,2026-05-20T08:56:08.985408,15.09526913,.00149441,98.0725,351.2035,207.3108,152.7335,0,U,41851,999,52097,.81897014E-4,.1244E-4,0
AEROCUBE 8D,2016-067E,2026-05-20T09:15:06.624576,15.23962793,.00024418,98.0712,8.4460,207.2452,152.8655,0,U,41852,999,52183,.22231499E-3,.5297E-4,0
AEROCUBE 8C,2016-067F,2026-05-20T14:41:06.273024,15.24205260,.00061505,98.0584,5.9531,143.5396,216.6259,0,U,41853,999,52186,.21270953E-3,.5104E-4,0
CORVUS BC2,2017-042X,2026-05-20T10:12:23.616576,15.06093182,.00125571,97.4041,302.8632,200.2358,159.8374,0,U,42846,999,48288,.10511495E-3,.1479E-4,0
CORVUS BC1,2017-042Y,2026-05-20T10:09:10.603296,15.06263627,.00120412,97.4071,303.6569,176.2355,183.8966,0,U,42847,999,48291,.10980659E-3,.1554E-4,0
MAKERSAT 0,2017-073D,2026-05-20T05:10:47.770752,15.30827686,.0110314,97.4657,22.5369,13.6755,346.7432,0,U,43016,999,46218,.53752E-3,.19291E-3,0
